{"type":"FeatureCollection","features":[{"type":"Feature","properties":{},"geometry":{"type":"Polygon","coordinates":[[[69.481199,53.333799],[69.485646,53.329169],[69.489286,53.326592],[69.496255,53.327756],[69.496985,53.326928],[69.499737,53.324354],[69.499625,53.321488],[69.509028,53.322377],[69.504438,53.321973],[69.499042,53.32138],[69.497356,53.318835],[69.49643,53.31743],[69.49769,53.316243],[69.502972,53.310725],[69.506248,53.310342],[69.517031,53.319905],[69.520847,53.323268],[69.525281,53.324561],[69.529366,53.325737],[69.534017,53.327427],[69.535849,53.3279],[69.537534,53.32856],[69.537591,53.329018],[69.537673,53.33011],[69.524323,53.344543],[69.523899,53.344733],[69.523419,53.344777],[69.481199,53.333799]]]}}]}